STARLINK-35095          
1 65425U 25192X   26032.73273851  .00036638  00000+0  92108-3 0  9998
2 65425  53.1585  41.1657 0000812 254.1652 105.9264 15.39634738 23855
STARLINK-34883          
1 65426U 25192Y   26032.34790409  .00016429  00000+0  41965-3 0  9990
2 65426  53.1596  43.0295 0001258  90.7647 269.3502 15.39632745 23788
STARLINK-34916          
1 65427U 25192Z   26032.74203793  .00040319  00000+0  10122-2 0  9995
2 65427  53.1582  41.2246 0001443  82.5994 277.5175 15.39631280 23858
STARLINK-35004          
1 65428U 25192AA  26032.26441385  .00049550  00000+0  12397-2 0  9996
2 65428  53.1591  43.2185 0001893 100.1797 259.9421 15.39644381 23786
STARLINK-35014          
1 65429U 25192AB  26032.98311884  .00037334  00000+0  93793-3 0  9993
2 65429  53.1582  39.8854 0001622  83.8986 276.2203 15.39646845 23897
STARLINK-35025          
1 65430U 25192AC  26032.98776143  .00034350  00000+0  86398-3 0  9996
2 65430  53.1586  39.9139 0001654  86.9204 273.1990 15.39650877 23891
STARLINK-35034          
1 65431U 25192AD  26032.45451264  .00043750  00000+0  10970-2 0  9999
2 65431  53.1585  42.2724 0001239  85.7520 274.3626 15.39632298 23813
STARLINK-35142          
1 65434U 25194A   26032.86741521  .00003315  00000+0  23383-3 0  9993
2 65434  97.6036 249.0109 0001801  90.7179 269.4255 15.05655488 24256
STARLINK-34978          
1 65435U 25194B   26032.55451895  .00005240  00000+0  36701-3 0  9999
2 65435  97.6016 248.8277 0001950  82.5387 277.6061 15.05657214 24214
STARLINK-35043          
1 65436U 25194C   26032.55020662  .00003457  00000+0  27929-3 0  9994
2 65436  97.6038 249.8166 0003183 358.5303   1.5911 15.00455306 24278
STARLINK-35080          
1 65437U 25194D   26032.56005616  .00004695  00000+0  32931-3 0  9992
2 65437  97.6019 248.8212 0001582  88.0829 272.0579 15.05656279 24214
STARLINK-35068          
1 65438U 25194E   26032.87295785  .00006390  00000+0  44680-3 0  9993
2 65438  97.6028 249.0192 0002048  84.7125 275.4336 15.05638212 24254
STARLINK-35045          
1 65439U 25194F   26032.56835460  .00004680  00000+0  32823-3 0  9996
2 65439  97.6018 248.8088 0001968  87.3411 272.8041 15.05662793 24213
STARLINK-35050          
1 65440U 25194G   26032.88128009  .00006155  00000+0  43013-3 0  9999
2 65440  97.6015 249.1621 0002599  72.9122 287.2389 15.05673607 24265
STARLINK-35065          
1 65441U 25194H   26032.59605673  .00005621  00000+0  39359-3 0  9990
2 65441  97.6031 248.7726 0002256  89.6631 270.4854 15.05639086 24214
STARLINK-34679          
1 65442U 25194J   26032.55728642  .00005390  00000+0  37737-3 0  9990
2 65442  97.6018 248.8248 0001767  87.7982 272.3447 15.05658433 24210
