[{"OBJECT_NAME":"STARLINK-35095","OBJECT_ID":"2025-192X","EPOCH":"2026-02-01T17:35:08.607264","MEAN_MOTION":15.39634738,"ECCENTRICITY":8.12e-5,"INCLINATION":53.1585,"RA_OF_ASC_NODE":41.1657,"ARG_OF_PERICENTER":254.1652,"MEAN_ANOMALY":105.9264,"EPHEMERIS_TYPE":0,"CLASSIFICATION_TYPE":"U","NORAD_CAT_ID":65425,"ELEMENT_SET_NO":999,"REV_AT_EPOCH":2385,"BSTAR":0.00092107777,"MEAN_MOTION_DOT":0.00036638,"MEAN_MOTION_DDOT":0},{"OBJECT_NAME":"STARLINK-34883","OBJECT_ID":"2025-192Y","EPOCH":"2026-02-01T08:20:58.913376","MEAN_MOTION":15.39632745,"ECCENTRICITY":0.00012587,"INCLINATION":53.1596,"RA_OF_ASC_NODE":43.0295,"ARG_OF_PERICENTER":90.7647,"MEAN_ANOMALY":269.3502,"EPHEMERIS_TYPE":0,"CLASSIFICATION_TYPE":"U","NORAD_CAT_ID":65426,"ELEMENT_SET_NO":999,"REV_AT_EPOCH":2378,"BSTAR":0.00041964631,"MEAN_MOTION_DOT":0.00016429,"MEAN_MOTION_DDOT":0},{"OBJECT_NAME":"STARLINK-34916","OBJECT_ID":"2025-192Z","EPOCH":"2026-02-01T17:48:32.077152","MEAN_MOTION":15.3963128,"ECCENTRICITY":0.00014439,"INCLINATION":53.1582,"RA_OF_ASC_NODE":41.2246,"ARG_OF_PERICENTER":82.5994,"MEAN_ANOMALY":277.5175,"EPHEMERIS_TYPE":0,"CLASSIFICATION_TYPE":"U","NORAD_CAT_ID":65427,"ELEMENT_SET_NO":999,"REV_AT_EPOCH":2385,"BSTAR":0.0010122392,"MEAN_MOTION_DOT":0.00040319,"MEAN_MOTION_DDOT":0},{"OBJECT_NAME":"STARLINK-35004","OBJECT_ID":"2025-192AA","EPOCH":"2026-02-01T06:20:45.356640","MEAN_MOTION":15.39644381,"ECCENTRICITY":0.00018932,"INCLINATION":53.1591,"RA_OF_ASC_NODE":43.2185,"ARG_OF_PERICENTER":100.1797,"MEAN_ANOMALY":259.9421,"EPHEMERIS_TYPE":0,"CLASSIFICATION_TYPE":"U","NORAD_CAT_ID":65428,"ELEMENT_SET_NO":999,"REV_AT_EPOCH":2378,"BSTAR":0.0012396777,"MEAN_MOTION_DOT":0.0004955,"MEAN_MOTION_DDOT":0},{"OBJECT_NAME":"STARLINK-35014","OBJECT_ID":"2025-192AB","EPOCH":"2026-02-01T23:35:41.467776","MEAN_MOTION":15.39646845,"ECCENTRICITY":0.0001622,"INCLINATION":53.1582,"RA_OF_ASC_NODE":39.8854,"ARG_OF_PERICENTER":83.8986,"MEAN_ANOMALY":276.2203,"EPHEMERIS_TYPE":0,"CLASSIFICATION_TYPE":"U","NORAD_CAT_ID":65429,"ELEMENT_SET_NO":999,"REV_AT_EPOCH":2389,"BSTAR":0.00093792598,"MEAN_MOTION_DOT":0.00037334,"MEAN_MOTION_DDOT":0},{"OBJECT_NAME":"STARLINK-35025","OBJECT_ID":"2025-192AC","EPOCH":"2026-02-01T23:42:22.587552","MEAN_MOTION":15.39650877,"ECCENTRICITY":0.00016541,"INCLINATION":53.1586,"RA_OF_ASC_NODE":39.9139,"ARG_OF_PERICENTER":86.9204,"MEAN_ANOMALY":273.199,"EPHEMERIS_TYPE":0,"CLASSIFICATION_TYPE":"U","NORAD_CAT_ID":65430,"ELEMENT_SET_NO":999,"REV_AT_EPOCH":2389,"BSTAR":0.00086397664,"MEAN_MOTION_DOT":0.0003435,"MEAN_MOTION_DDOT":0},{"OBJECT_NAME":"STARLINK-35034","OBJECT_ID":"2025-192AD","EPOCH":"2026-02-01T10:54:29.892096","MEAN_MOTION":15.39632298,"ECCENTRICITY":0.00012393,"INCLINATION":53.1585,"RA_OF_ASC_NODE":42.2724,"ARG_OF_PERICENTER":85.752,"MEAN_ANOMALY":274.3626,"EPHEMERIS_TYPE":0,"CLASSIFICATION_TYPE":"U","NORAD_CAT_ID":65431,"ELEMENT_SET_NO":999,"REV_AT_EPOCH":2381,"BSTAR":0.001097022,"MEAN_MOTION_DOT":0.0004375,"MEAN_MOTION_DDOT":0},{"OBJECT_NAME":"STARLINK-35142","OBJECT_ID":"2025-194A","EPOCH":"2026-02-01T20:49:04.674144","MEAN_MOTION":15.05655488,"ECCENTRICITY":0.00018011,"INCLINATION":97.6036,"RA_OF_ASC_NODE":249.0109,"ARG_OF_PERICENTER":90.7179,"MEAN_ANOMALY":269.4255,"EPHEMERIS_TYPE":0,"CLASSIFICATION_TYPE":"U","NORAD_CAT_ID":65434,"ELEMENT_SET_NO":999,"REV_AT_EPOCH":2425,"BSTAR":0.00023382684,"MEAN_MOTION_DOT":3.315e-5,"MEAN_MOTION_DDOT":0},{"OBJECT_NAME":"STARLINK-34978","OBJECT_ID":"2025-194B","EPOCH":"2026-02-01T13:18:30.437280","MEAN_MOTION":15.05657214,"ECCENTRICITY":0.00019508,"INCLINATION":97.6016,"RA_OF_ASC_NODE":248.8277,"ARG_OF_PERICENTER":82.5387,"MEAN_ANOMALY":277.6061,"EPHEMERIS_TYPE":0,"CLASSIFICATION_TYPE":"U","NORAD_CAT_ID":65435,"ELEMENT_SET_NO":999,"REV_AT_EPOCH":2421,"BSTAR":0.00036700689,"MEAN_MOTION_DOT":5.24e-5,"MEAN_MOTION_DDOT":0},{"OBJECT_NAME":"STARLINK-35043","OBJECT_ID":"2025-194C","EPOCH":"2026-02-01T13:12:17.851968","MEAN_MOTION":15.00455306,"ECCENTRICITY":0.00031834,"INCLINATION":97.6038,"RA_OF_ASC_NODE":249.8166,"ARG_OF_PERICENTER":358.5303,"MEAN_ANOMALY":1.5911,"EPHEMERIS_TYPE":0,"CLASSIFICATION_TYPE":"U","NORAD_CAT_ID":65436,"ELEMENT_SET_NO":999,"REV_AT_EPOCH":2427,"BSTAR":0.00027929475,"MEAN_MOTION_DOT":3.457e-5,"MEAN_MOTION_DDOT":0},{"OBJECT_NAME":"STARLINK-35080","OBJECT_ID":"2025-194D","EPOCH":"2026-02-01T13:26:28.852224","MEAN_MOTION":15.05656279,"ECCENTRICITY":0.00015821,"INCLINATION":97.6019,"RA_OF_ASC_NODE":248.8212,"ARG_OF_PERICENTER":88.0829,"MEAN_ANOMALY":272.0579,"EPHEMERIS_TYPE":0,"CLASSIFICATION_TYPE":"U","NORAD_CAT_ID":65437,"ELEMENT_SET_NO":999,"REV_AT_EPOCH":2421,"BSTAR":0.0003293071,"MEAN_MOTION_DOT":4.695e-5,"MEAN_MOTION_DDOT":0},{"OBJECT_NAME":"STARLINK-35068","OBJECT_ID":"2025-194E","EPOCH":"2026-02-01T20:57:03.558240","MEAN_MOTION":15.05638212,"ECCENTRICITY":0.00020485,"INCLINATION":97.6028,"RA_OF_ASC_NODE":249.0192,"ARG_OF_PERICENTER":84.7125,"MEAN_ANOMALY":275.4336,"EPHEMERIS_TYPE":0,"CLASSIFICATION_TYPE":"U","NORAD_CAT_ID":65438,"ELEMENT_SET_NO":999,"REV_AT_EPOCH":2425,"BSTAR":0.00044680052,"MEAN_MOTION_DOT":6.39e-5,"MEAN_MOTION_DDOT":0},{"OBJECT_NAME":"STARLINK-35045","OBJECT_ID":"2025-194F","EPOCH":"2026-02-01T13:38:25.837440","MEAN_MOTION":15.05662793,"ECCENTRICITY":0.00019689,"INCLINATION":97.6018,"RA_OF_ASC_NODE":248.8088,"ARG_OF_PERICENTER":87.3411,"MEAN_ANOMALY":272.8041,"EPHEMERIS_TYPE":0,"CLASSIFICATION_TYPE":"U","NORAD_CAT_ID":65439,"ELEMENT_SET_NO":999,"REV_AT_EPOCH":2421,"BSTAR":0.00032823228,"MEAN_MOTION_DOT":4.68e-5,"MEAN_MOTION_DDOT":0},{"OBJECT_NAME":"STARLINK-35050","OBJECT_ID":"2025-194G","EPOCH":"2026-02-01T21:09:02.599776","MEAN_MOTION":15.05673607,"ECCENTRICITY":0.00025999,"INCLINATION":97.6015,"RA_OF_ASC_NODE":249.1621,"ARG_OF_PERICENTER":72.9122,"MEAN_ANOMALY":287.2389,"EPHEMERIS_TYPE":0,"CLASSIFICATION_TYPE":"U","NORAD_CAT_ID":65440,"ELEMENT_SET_NO":999,"REV_AT_EPOCH":2426,"BSTAR":0.00043012703,"MEAN_MOTION_DOT":6.155e-5,"MEAN_MOTION_DDOT":0},{"OBJECT_NAME":"STARLINK-35065","OBJECT_ID":"2025-194H","EPOCH":"2026-02-01T14:18:19.301472","MEAN_MOTION":15.05639086,"ECCENTRICITY":0.0002256,"INCLINATION":97.6031,"RA_OF_ASC_NODE":248.7726,"ARG_OF_PERICENTER":89.6631,"MEAN_ANOMALY":270.4854,"EPHEMERIS_TYPE":0,"CLASSIFICATION_TYPE":"U","NORAD_CAT_ID":65441,"ELEMENT_SET_NO":999,"REV_AT_EPOCH":2421,"BSTAR":0.00039359233,"MEAN_MOTION_DOT":5.621e-5,"MEAN_MOTION_DDOT":0},{"OBJECT_NAME":"STARLINK-34679","OBJECT_ID":"2025-194J","EPOCH":"2026-02-01T13:22:29.546688","MEAN_MOTION":15.05658433,"ECCENTRICITY":0.00017671,"INCLINATION":97.6018,"RA_OF_ASC_NODE":248.8248,"ARG_OF_PERICENTER":87.7982,"MEAN_ANOMALY":272.3447,"EPHEMERIS_TYPE":0,"CLASSIFICATION_TYPE":"U","NORAD_CAT_ID":65442,"ELEMENT_SET_NO":999,"REV_AT_EPOCH":2421,"BSTAR":0.00037737403,"MEAN_MOTION_DOT":5.39e-5,"MEAN_MOTION_DDOT":0}]
